{"type": "FeatureCollection", "features": [ {"type": "Feature", "properties": {"norad_id": 30996, "name": "FENGYUN 1C DEB", "group": "fengyun-1c-debris", "lat": -3.7963731059742467, "lon": 71.61578993515198, "alt_km": 787.2719355449726, "timestamp": "2025-12-13T05:42:57.839269+00:00", "meta": {"OBJECT_NAME": "FENGYUN 1C DEB", "OBJECT_ID": "1999-025BCN", "EPOCH": "2025-12-11T05:03:32.171328", "MEAN_MOTION": 14.35397133, "ECCENTRICITY": 0.00502536, "INCLINATION": 98.9434, "RA_OF_ASC_NODE": 250.1141, "ARG_OF_PERICENTER": 296.3884, "MEAN_ANOMALY": 217.4243, "EPHEMERIS_TYPE": 0, "CLASSIFICATION_TYPE": "U", "NORAD_CAT_ID": 30996, "ELEMENT_SET_NO": 999, "REV_AT_EPOCH": 97541, "BSTAR": 0.001511924, "MEAN_MOTION_DOT": 4.357e-05, "MEAN_MOTION_DDOT": 0}, "tle": {"line1": "1 30996U 99025BCN 25345.21078902  .00004357  00000+0  15119-2 0  9997", "line2": "2 30996  98.9434 250.1141 0050253 296.3884 217.4243 14.35397133975413"}}, "geometry": {"type": "Point", "coordinates": [71.61578993515198, -3.7963731059742467]}}, {"type": "Feature", "properties": {"norad_id": 30998, "name": "FENGYUN 1C DEB", "group": "fengyun-1c-debris", "lat": -40.005619046406416, "lon": -116.75325764583047, "alt_km": 731.0041411091552, "timestamp": "2025-12-13T05:42:57.839279+00:00", "meta": {"OBJECT_NAME": "FENGYUN 1C DEB", "OBJECT_ID": "1999-025BCQ", "EPOCH": "2025-12-11T04:53:54.665088", "MEAN_MOTION": 14.47854327, "ECCENTRICITY": 0.0012798, "INCLINATION": 98.8279, "RA_OF_ASC_NODE": 68.6185, "ARG_OF_PERICENTER": 197.4011, "MEAN_ANOMALY": 226.8043, "EPHEMERIS_TYPE": 0, "CLASSIFICATION_TYPE": "U", "NORAD_CAT_ID": 30998, "ELEMENT_SET_NO": 999, "REV_AT_EPOCH": 97168, "BSTAR": 0.0039197871, "MEAN_MOTION_DOT": 0.00014509, "MEAN_MOTION_DDOT": 0}, "tle": {"line1": "1 30998U 99025BCQ 25345.20410492  .00014509  00000+0  39198-2 0  9995", "line2": "2 30998  98.8279  68.6185 0012798 197.4011 226.8043 14.47854327971689"}}, "geometry": {"type": "Point", "coordinates": [-116.75325764583047, -40.005619046406416]}}, {"type": "Feature", "properties": {"norad_id": 30999, "name": "FENGYUN 1C DEB", "group": "fengyun-1c-debris", "lat": -5.507417770526507, "lon": 161.90052845845932, "alt_km": 625.7703891697311, "timestamp": "2025-12-13T05:42:57.839290+00:00", "meta": {"OBJECT_NAME": "FENGYUN 1C DEB", "OBJECT_ID": "1999-025BCR", "EPOCH": "2025-12-11T22:27:23.654880", "MEAN_MOTION": 14.58410869, "ECCENTRICITY": 0.0113068, "INCLINATION": 99.0908, "RA_OF_ASC_NODE": 159.5924, "ARG_OF_PERICENTER": 340.39, "MEAN_ANOMALY": 19.2964, "EPHEMERIS_TYPE": 0, "CLASSIFICATION_TYPE": "U", "NORAD_CAT_ID": 30999, "ELEMENT_SET_NO": 999, "REV_AT_EPOCH": 98819, "BSTAR": 0.00088716, "MEAN_MOTION_DOT": 4.433e-05, "MEAN_MOTION_DDOT": 0}, "tle": {"line1": "1 30999U 99025BCR 25345.93569045  .00004433  00000+0  88716-3 0  9991", "line2": "2 30999  99.0908 159.5924 0113068 340.3900  19.2964 14.58410869988192"}}, "geometry": {"type": "Point", "coordinates": [161.90052845845932, -5.507417770526507]}}, {"type": "Feature", "properties": {"norad_id": 31000, "name": "FENGYUN 1C DEB", "group": "fengyun-1c-debris", "lat": -81.48639874515355, "lon": 133.1897495632395, "alt_km": 979.3117668270997, "timestamp": "2025-12-13T05:42:57.839300+00:00", "meta": {"OBJECT_NAME": "FENGYUN 1C DEB", "OBJECT_ID": "1999-025BCS", "EPOCH": "2025-12-11T01:29:11.151168", "MEAN_MOTION": 14.09635849, "ECCENTRICITY": 0.01654898, "INCLINATION": 97.5668, "RA_OF_ASC_NODE": 13.9766, "ARG_OF_PERICENTER": 71.124, "MEAN_ANOMALY": 318.282, "EPHEMERIS_TYPE": 0, "CLASSIFICATION_TYPE": "U", "NORAD_CAT_ID": 31000, "ELEMENT_SET_NO": 999, "REV_AT_EPOCH": 69933, "BSTAR": 0.00068975329, "MEAN_MOTION_DOT": 1.34e-05, "MEAN_MOTION_DDOT": 0}, "tle": {"line1": "1 31000U 99025BCS 25345.06193462  .00001340  00000+0  68975-3 0  9994", "line2": "2 31000  97.5668  13.9766 0165489  71.1240 318.2820 14.09635849699330"}}, "geometry": {"type": "Point", "coordinates": [133.1897495632395, -81.48639874515355]}}, {"type": "Feature", "properties": {"norad_id": 31001, "name": "FENGYUN 1C DEB", "group": "fengyun-1c-debris", "lat": 80.43697523578538, "lon": 116.01317350003632, "alt_km": 686.14977930856, "timestamp": "2025-12-13T05:42:57.839310+00:00", "meta": {"OBJECT_NAME": "FENGYUN 1C DEB", "OBJECT_ID": "1999-025BCT", "EPOCH": "2025-12-12T02:39:27.878112", "MEAN_MOTION": 14.42858877, "ECCENTRICITY": 0.01468358, "INCLINATION": 99.2719, "RA_OF_ASC_NODE": 218.9415, "ARG_OF_PERICENTER": 154.3626, "MEAN_ANOMALY": 206.4937, "EPHEMERIS_TYPE": 0, "CLASSIFICATION_TYPE": "U", "NORAD_CAT_ID": 31001, "ELEMENT_SET_NO": 999, "REV_AT_EPOCH": 98197, "BSTAR": 0.00062559391, "MEAN_MOTION_DOT": 2.323e-05, "MEAN_MOTION_DDOT": 0}, "tle": {"line1": "1 31001U 99025BCT 25346.11073933  .00002323  00000+0  62559-3 0  9996", "line2": "2 31001  99.2719 218.9415 0146835 154.3626 206.4937 14.42858877981977"}}, "geometry": {"type": "Point", "coordinates": [116.01317350003632, 80.43697523578538]}}, {"type": "Feature", "properties": {"norad_id": 31002, "name": "FENGYUN 1C DEB", "group": "fengyun-1c-debris", "lat": 58.74644447145517, "lon": -15.755960583829227, "alt_km": 869.9849633133372, "timestamp": "2025-12-13T05:42:57.839321+00:00", "meta": {"OBJECT_NAME": "FENGYUN 1C DEB", "OBJECT_ID": "1999-025BCU", "EPOCH": "2025-12-12T07:12:38.124000", "MEAN_MOTION": 13.99202693, "ECCENTRICITY": 0.0099, "INCLINATION": 98.8861, "RA_OF_ASC_NODE": 358.2726, "ARG_OF_PERICENTER": 348.84, "MEAN_ANOMALY": 29.1773, "EPHEMERIS_TYPE": 0, "CLASSIFICATION_TYPE": "U", "NORAD_CAT_ID": 31002, "ELEMENT_SET_NO": 999, "REV_AT_EPOCH": 95599, "BSTAR": 0.00041040224, "MEAN_MOTION_DOT": 5.78e-06, "MEAN_MOTION_DDOT": 0}, "tle": {"line1": "1 31002U 99025BCU 25346.30044125  .00000578  00000+0  41040-3 0  9991", "line2": "2 31002  98.8861 358.2726 0099000 348.8400  29.1773 13.99202693955996"}}, "geometry": {"type": "Point", "coordinates": [-15.755960583829227, 58.74644447145517]}}, {"type": "Feature", "properties": {"norad_id": 31003, "name": "FENGYUN 1C DEB", "group": "fengyun-1c-debris", "lat": 77.2023206829685, "lon": -72.70503504977638, "alt_km": 814.1014905831371, "timestamp": "2025-12-13T05:42:57.839331+00:00", "meta": {"OBJECT_NAME": "FENGYUN 1C DEB", "OBJECT_ID": "1999-025BCV", "EPOCH": "2025-12-12T03:57:56.469888", "MEAN_MOTION": 14.24690255, "ECCENTRICITY": 0.00416518, "INCLINATION": 98.8428, "RA_OF_ASC_NODE": 62.9537, "ARG_OF_PERICENTER": 215.9859, "MEAN_ANOMALY": 143.8513, "EPHEMERIS_TYPE": 0, "CLASSIFICATION_TYPE": "U", "NORAD_CAT_ID": 31003, "ELEMENT_SET_NO": 999, "REV_AT_EPOCH": 96501, "BSTAR": 0.0021922587, "MEAN_MOTION_DOT": 5.104e-05, "MEAN_MOTION_DDOT": 0}, "tle": {"line1": "1 31003U 99025BCV 25346.16523692  .00005104  00000+0  21923-2 0  9994", "line2": "2 31003  98.8428  62.9537 0041651 215.9859 143.8513 14.24690255965010"}}, "geometry": {"type": "Point", "coordinates": [-72.70503504977638, 77.2023206829685]}}, {"type": "Feature", "properties": {"norad_id": 31005, "name": "FENGYUN 1C DEB", "group": "fengyun-1c-debris", "lat": -48.00715536939572, "lon": 130.63725670618078, "alt_km": 829.8003772280526, "timestamp": "2025-12-13T05:42:57.839342+00:00", "meta": {"OBJECT_NAME": "FENGYUN 1C DEB", "OBJECT_ID": "1999-025BCX", "EPOCH": "2025-12-11T08:55:06.907872", "MEAN_MOTION": 13.83274436, "ECCENTRICITY": 0.01805796, "INCLINATION": 98.6125, "RA_OF_ASC_NODE": 119.235, "ARG_OF_PERICENTER": 329.1595, "MEAN_ANOMALY": 52.6031, "EPHEMERIS_TYPE": 0, "CLASSIFICATION_TYPE": "U", "NORAD_CAT_ID": 31005, "ELEMENT_SET_NO": 999, "REV_AT_EPOCH": 94262, "BSTAR": 0.0016268947, "MEAN_MOTION_DOT": 1.985e-05, "MEAN_MOTION_DDOT": 0}, "tle": {"line1": "1 31005U 99025BCX 25345.37160773  .00001985  00000+0  16269-2 0  9995", "line2": "2 31005  98.6125 119.2350 0180579 329.1595  52.6031 13.83274436942628"}}, "geometry": {"type": "Point", "coordinates": [130.63725670618078, -48.00715536939572]}}, {"type": "Feature", "properties": {"norad_id": 31007, "name": "FENGYUN 1C DEB", "group": "fengyun-1c-debris", "lat": 25.68903508867086, "lon": 162.94991490340192, "alt_km": 718.4434138005763, "timestamp": "2025-12-13T05:42:57.839352+00:00", "meta": {"OBJECT_NAME": "FENGYUN 1C DEB", "OBJECT_ID": "1999-025BCZ", "EPOCH": "2025-12-12T04:19:22.711008", "MEAN_MOTION": 14.5862932, "ECCENTRICITY": 0.00675257, "INCLINATION": 98.0877, "RA_OF_ASC_NODE": 337.9979, "ARG_OF_PERICENTER": 39.7487, "MEAN_ANOMALY": 320.8633, "EPHEMERIS_TYPE": 0, "CLASSIFICATION_TYPE": "U", "NORAD_CAT_ID": 31007, "ELEMENT_SET_NO": 999, "REV_AT_EPOCH": 98086, "BSTAR": 0.0034570533, "MEAN_MOTION_DOT": 0.00016605, "MEAN_MOTION_DDOT": 0}, "tle": {"line1": "1 31007U 99025BCZ 25346.18012397  .00016605  00000+0  34571-2 0  9996", "line2": "2 31007  98.0877 337.9979 0067525  39.7487 320.8633 14.58629320980868"}}, "geometry": {"type": "Point", "coordinates": [162.94991490340192, 25.68903508867086]}}, {"type": "Feature", "properties": {"norad_id": 31009, "name": "FENGYUN 1C DEB", "group": "fengyun-1c-debris", "lat": -40.45714718332016, "lon": -9.274949668778, "alt_km": 894.1943415655451, "timestamp": "2025-12-13T05:42:57.839362+00:00", "meta": {"OBJECT_NAME": "FENGYUN 1C DEB", "OBJECT_ID": "1999-025BDB", "EPOCH": "2025-12-11T23:18:54.690048", "MEAN_MOTION": 14.00364004, "ECCENTRICITY": 0.0052829, "INCLINATION": 98.8975, "RA_OF_ASC_NODE": 341.8155, "ARG_OF_PERICENTER": 239.4285, "MEAN_ANOMALY": 176.6757, "EPHEMERIS_TYPE": 0, "CLASSIFICATION_TYPE": "U", "NORAD_CAT_ID": 31009, "ELEMENT_SET_NO": 999, "REV_AT_EPOCH": 95850, "BSTAR": 0.00022615, "MEAN_MOTION_DOT": 2.96e-06, "MEAN_MOTION_DDOT": 0}, "tle": {"line1": "1 31009U 99025BDB 25345.97146632  .00000296  00000+0  22615-3 0  9990", "line2": "2 31009  98.8975 341.8155 0052829 239.4285 176.6757 14.00364004958505"}}, "geometry": {"type": "Point", "coordinates": [-9.274949668778, -40.45714718332016]}}]}